{
  "norad_id": 62512,
  "name": "STARLINK-11443 [DTC]",
  "history": [
    {
      "epoch": "2026-03-28T15:16:20.208864Z",
      "apogee_km": 356.0956886243739,
      "perigee_km": 356.0391213073717,
      "latitude_deg": 2.6322176073388294e-05,
      "longitude_deg": -98.18862161269011,
      "height_km": 355.8655892410472,
      "semi_major_axis_km": 6734.2044049658725,
      "eccentricity": 4.2e-06,
      "inclination_deg": 42.9952,
      "raan_deg": 316.9495,
      "arg_perigee_deg": 167.4674,
      "mean_anomaly_deg": 192.6195,
      "mean_motion_rev_day": 15.70989637
    }
  ]
}