{"fetched_at":"2026-03-29T16:36:15Z","count":15609,"tles":[{"name":"STARLINK-11443 [DTC]","line1":"1 62512U 25004B   26087.63634501  .00212834  00000+0  16098-2 0  9993","line2":"2 62512  42.9952 316.9495 0000042 167.4674 192.6195 15.70989637 70181","category":"Starlink"}]}